NORAD_CAT_ID,OBJECT_NAME,OBJECT_TYPE,EPOCH,MEAN_MOTION,ECCENTRICITY,INCLINATION,RA_OF_ASC_NODE,ARG_OF_PERICENTER,MEAN_ANOMALY,BSTAR,MEAN_MOTION_DOT,MEAN_MOTION_DDOT,TLE_LINE0,TLE_LINE1,TLE_LINE2,SEMIMAJOR_AXIS,PERIOD,APOGEE,PERIGEE,DECAYED
55668.0,STARLINK-5455,PAYLOAD,2023-08-28 06:00:02,15.09820951,0.0003218,70.0002,335.5403,274.1638,177.2288,-0.059776,-0.00897772,0.0,0 STARLINK-5455,1 55668U 23021AS  23240.25002315 -.00897772  00000-0 -59776-1 0  9994,2 55668  70.0002 335.5403 0003218 274.1638 177.2288 15.09820951 30502,6914.884,95.376,538.974,534.523,0.0
55668.0,STARLINK-5455,PAYLOAD,2023-08-28 22:00:00,15.08539222,0.0003128,69.9999,333.831,279.2178,193.0786,-0.066587,-0.00960246,0.0,0 STARLINK-5455,1 55668U 23021AS  23240.91667824 -.00960246  00000-0 -66587-1 0  9994,2 55668  69.9999 333.8310 0003128 279.2178 193.0786 15.08539222 30604,6918.8,95.457,542.829,538.501,0.0
55668.0,STARLINK-5455,PAYLOAD,2023-08-29 14:00:01,15.0720186,0.0003204,70.0002,332.1251,280.8504,209.2903,-0.064136,-0.00896613,0.0,0 STARLINK-5455,1 55668U 23021AS  23241.58334491 -.00896613  00000-0 -64136-1 0  9993,2 55668  70.0002 332.1251 0003204 280.8504 209.2903 15.07201860 30709,6922.892,95.541,546.975,542.539,0.0
55668.0,STARLINK-5455,PAYLOAD,2023-08-29 22:00:00,15.06580382,0.0003108,69.9999,331.2735,279.5724,218.3039,-0.070034,-0.00957607,0.0,0 STARLINK-5455,1 55668U 23021AS  23241.91667824 -.00957607  00000-0 -70034-1 0  9994,2 55668  69.9999 331.2735 0003108 279.5724 218.3039 15.06580382  5970,6924.796,95.581,548.813,544.509,0.0
55668.0,STARLINK-5455,PAYLOAD,2023-08-30 06:00:00,15.0591184,0.0003088,70.0002,330.4227,275.3047,229.5287,-0.067085,-0.00904916,0.0,0 STARLINK-5455,1 55668U 23021AS  23242.25001157 -.00904916  00000-0 -67085-1 0  9990,2 55668  70.0002 330.4227 0003088 275.3047 229.5287 15.05911840 30809,6926.845,95.623,550.849,546.571,0.0
55668.0,STARLINK-5455,PAYLOAD,2023-08-30 22:00:00,15.04620684,0.0003099,69.9997,328.7236,279.3314,237.0843,-0.073451,-0.00952938,0.0,0 STARLINK-5455,1 55668U 23021AS  23242.91667824 -.00952938  00000-0 -73451-1 0  9993,2 55668  69.9997 328.7236 0003099 279.3314 237.0843 15.04620684 30907,6930.807,95.705,554.82,550.524,0.0
55668.0,STARLINK-5455,PAYLOAD,2023-08-31 14:00:01,15.03285531,0.000318,69.9997,327.0279,281.0276,243.8445,-0.070873,-0.00891916,0.0,0 STARLINK-5455,1 55668U 23021AS  23243.58334491 -.00891916  00000-0 -70873-1 0  9991,2 55668  69.9997 327.0279 0003180 281.0276 243.8445 15.03285531 31006,6934.91,95.79,558.981,554.57,0.0
55668.0,STARLINK-5455,PAYLOAD,2023-08-31 22:00:01,15.02661494,0.0003089,69.9993,326.1813,278.566,249.4111,-0.077068,-0.00960152,0.0,0 STARLINK-5455,1 55668U 23021AS  23243.91668981 -.00960152  00000-0 -77068-1 0  9994,2 55668  69.9993 326.1813 0003089 278.5660 249.4111 15.02661494  6012,6936.83,95.83,560.838,556.553,0.0
55668.0,STARLINK-5455,PAYLOAD,2023-09-01 06:00:00,15.0200415,0.0003072,69.9996,325.3356,274.4953,255.6795,-0.075343,-0.00914585,0.0,0 STARLINK-5455,1 55668U 23021AS  23244.25001157 -.00914585  00000-0 -75343-1 0  9991,2 55668  69.9996 325.3356 0003072 274.4953 255.6795 15.02004150 31105,6938.854,95.872,562.851,558.587,0.0
55668.0,STARLINK-5455,PAYLOAD,2023-09-01 14:00:01,15.0132883,0.0003176,69.9993,324.4907,280.4204,251.2561,-0.07467,-0.00892119,0.0,0 STARLINK-5455,1 55668U 23021AS  23244.58334491 -.00892119  00000-0 -74670-1 0  9997,2 55668  69.9993 324.4907 0003176 280.4204 251.2561 15.01328830  5685,6940.935,95.915,565.004,560.595,0.0
55668.0,STARLINK-5455,PAYLOAD,2023-09-01 22:00:00,15.00702538,0.0003098,69.9989,323.6466,277.7967,254.5758,-0.080844,-0.00956593,0.0,0 STARLINK-5455,1 55668U 23021AS  23244.91667824 -.00956593  00000-0 -80844-1 0  9990,2 55668  69.9989 323.6466 0003098 277.7967 254.5758 15.00702538  5739,6942.866,95.955,566.882,562.58,0.0
55668.0,STARLINK-5455,PAYLOAD,2023-09-02 14:00:01,14.99296063,0.0003332,69.9991,321.961,279.5885,251.8609,0.000386,4.632e-05,0.0,0 STARLINK-5455,1 55668U 23021AS  23245.58334491  .00004632  00000-0  38600-3 0  9996,2 55668  69.9991 321.9610 0003332 279.5885 251.8609 14.99296063 31309,6947.207,96.045,571.387,566.757,0.0
55668.0,STARLINK-5455,PAYLOAD,2023-09-02 22:00:00,14.99308904,0.0003364,69.9991,321.119,275.4296,254.6717,-0.0042036,-0.00051169,0.0,0 STARLINK-5455,1 55668U 23021AS  23245.91667824 -.00051169  00000-0 -42036-2 0  9998,2 55668  69.9991 321.1190 0003364 275.4296 254.6717 14.99308904  5894,6947.167,96.044,571.369,566.695,0.0
55668.0,STARLINK-5455,PAYLOAD,2023-09-03 14:00:01,14.99290125,0.0003434,69.9996,319.4354,277.5826,249.8082,0.0011085,0.00013492,0.0,0 STARLINK-5455,1 55668U 23021AS  23246.58334491  .00013492  00000-0  11085-2 0  9998,2 55668  69.9996 319.4354 0003434 277.5826 249.8082 14.99290125  5897,6947.225,96.045,571.476,566.705,0.0
55668.0,STARLINK-5455,PAYLOAD,2023-09-03 22:00:00,14.99299521,0.0003424,69.9999,318.5935,274.2728,251.7599,-0.00092036,-0.00011337,0.0,0 STARLINK-5455,1 55668U 23021AS  23246.91667824 -.00011337  00000-0 -92036-3 0  9998,2 55668  69.9999 318.5935 0003424 274.2728 251.7599 14.99299521 31500,6947.196,96.045,571.44,566.683,0.0
55668.0,STARLINK-5455,PAYLOAD,2023-09-04 14:00:01,14.9929123,0.0003466,70.0001,316.9099,276.9593,246.3686,0.0017078,0.0002086,0.0,0 STARLINK-5455,1 55668U 23021AS  23247.58334491  .00020860  00000-0  17078-2 0  9994,2 55668  70.0001 316.9099 0003466 276.9593 246.3686 14.99291230  5951,6947.222,96.045,571.495,566.679,0.0
55668.0,STARLINK-5455,PAYLOAD,2023-09-04 22:00:00,14.99299877,0.0003423,70.0001,316.0681,273.4984,248.4752,-0.00073495,-9.075e-05,0.0,0 STARLINK-5455,1 55668U 23021AS  23247.91667824 -.00009075  00000-0 -73495-3 0  9993,2 55668  70.0001 316.0681 0003423 273.4984 248.4752 14.99299877 31656,6947.195,96.045,571.438,566.682,0.0
55668.0,STARLINK-5455,PAYLOAD,2023-09-05 14:00:01,14.99276486,0.0003413,70.0002,314.3845,277.8735,241.3959,0.0035089,0.00043079,0.0,0 STARLINK-5455,1 55668U 23021AS  23248.58334491  .00043079  00000-0  35089-2 0  9994,2 55668  70.0002 314.3845 0003413 277.8735 241.3959 14.99276486  5845,6947.268,96.046,571.504,566.761,0.0
55668.0,STARLINK-5455,PAYLOAD,2023-09-05 22:00:00,14.99310095,0.0003301,70.0001,313.5427,274.909,243.0121,-0.00022633,-2.863e-05,0.0,0 STARLINK-5455,1 55668U 23021AS  23248.91667824 -.00002863  00000-0 -22633-3 0  9990,2 55668  70.0001 313.5427 0003301 274.9090 243.0121 14.99310095 31809,6947.164,96.044,571.322,566.735,0.0
55668.0,STARLINK-5455,PAYLOAD,2023-09-06 00:00:00,14.99282499,0.000331,70.0001,313.3322,273.5775,334.0165,0.0049137,0.00060523,0.0,0 STARLINK-5455,1 55668U 23021AS  23249.00001157  .00060523  00000-0  49137-2 0  9994,2 55668  70.0001 313.3322 0003310 273.5775 334.0165 14.99282499 31823,6947.249,96.046,571.413,566.814,0.0
55668.0,STARLINK-5455,PAYLOAD,2023-09-06 16:30:44,14.99313239,0.0003356,69.9986,311.595,275.0636,85.0141,0.00013392,1.546e-05,0.0,0 STARLINK-5455,1 55668U 23021AS  23249.68801329  .00001546  00000-0  13392-3 0  9992,2 55668  69.9986 311.5950 0003356 275.0636  85.0141 14.99313239 31927,6947.154,96.044,571.35,566.688,0.0
55668.0,STARLINK-5455,PAYLOAD,2023-09-06 21:18:58,14.99301657,0.0003788,69.9988,311.0896,270.2574,89.8151,-2.9641e-05,-4.57e-06,0.0,0 STARLINK-5455,1 55668U 23021AS  23249.88817185 -.00000457  00000-0 -29641-4 0  9998,2 55668  69.9988 311.0896 0003788 270.2574  89.8151 14.99301657 32251,6947.19,96.045,571.686,566.423,0.0
55668.0,STARLINK-5455,PAYLOAD,2023-09-07 08:31:29,14.99292578,0.0003294,69.9985,309.909,275.3134,84.765,-7.9361e-05,-1.065e-05,0.0,0 STARLINK-5455,1 55668U 23021AS  23250.35519956 -.00001065  00000-0 -79361-4 0  9997,2 55668  69.9985 309.9090 0003294 275.3134  84.7650 14.99292578 32024,6947.218,96.045,571.371,566.794,0.0
55668.0,STARLINK-5455,PAYLOAD,2023-09-07 16:31:50,14.99295101,0.0003238,69.9986,309.0671,274.7548,85.3242,-4.7835e-05,-6.79e-06,0.0,0 STARLINK-5455,1 55668U 23021AS  23250.68878189 -.00000679  00000-0 -47835-4 0  9990,2 55668  69.9986 309.0671 0003238 274.7548  85.3242 14.99295101 32378,6947.21,96.045,571.325,566.825,0.0
55668.0,STARLINK-5455,PAYLOAD,2023-09-08 10:08:38,14.99302375,0.0003374,69.9984,307.2144,271.0643,89.013,-0.00010212,-1.343e-05,0.0,0 STARLINK-5455,1 55668U 23021AS  23251.42266295 -.00001343  00000-0 -10212-3 0  9999,2 55668  69.9984 307.2144 0003374 271.0643  89.0130 14.99302375 32186,6947.188,96.045,571.397,566.709,0.0
55668.0,STARLINK-5455,PAYLOAD,2023-09-08 13:20:46,14.99297021,0.0003345,69.9983,306.8773,270.8902,89.1874,2.5026e-05,2.12e-06,0.0,0 STARLINK-5455,1 55668U 23021AS  23251.55609479  .00000212  00000-0  25026-4 0  9990,2 55668  69.9983 306.8773 0003345 270.8902  89.1874 14.99297021 32504,6947.204,96.045,571.393,566.745,0.0
55668.0,STARLINK-5455,PAYLOAD,2023-09-08 16:32:55,14.99299717,0.0003391,69.9982,306.5401,270.9373,89.1398,5.3995e-05,5.67e-06,0.0,0 STARLINK-5455,1 55668U 23021AS  23251.68952597  .00000567  00000-0  53995-4 0  9995,2 55668  69.9982 306.5401 0003391 270.9373  89.1398 14.99299717 32529,6947.196,96.045,571.417,566.705,0.0
55668.0,STARLINK-5455,PAYLOAD,2023-09-09 10:09:43,14.99293331,0.0003296,69.9981,304.6869,268.6076,91.4706,5.2838e-05,5.53e-06,0.0,0 STARLINK-5455,1 55668U 23021AS  23252.42341756  .00000553  00000-0  52838-4 0  9997,2 55668  69.9981 304.6869 0003296 268.6076  91.4706 14.99293331 32337,6947.215,96.045,571.37,566.791,0.0
55668.0,STARLINK-5455,PAYLOAD,2023-09-09 13:21:51,14.99295314,0.0003133,69.9984,304.3498,266.2211,93.8591,7.2918e-05,7.98e-06,0.0,0 STARLINK-5455,1 55668U 23021AS  23252.55684992  .00000798  00000-0  72918-4 0  9995,2 55668  69.9984 304.3498 0003133 266.2211  93.8591 14.99295314 32656,6947.209,96.045,571.251,566.898,0.0
55668.0,STARLINK-5455,PAYLOAD,2023-09-10 10:10:47,14.9930498,0.0003111,69.9991,302.1608,265.8756,94.2048,7.044e-05,7.68e-06,0.0,0 STARLINK-5455,1 55668U 23021AS  23253.42416316  .00000768  00000-0  70440-4 0  9990,2 55668  69.9991 302.1608 0003111 265.8756  94.2048 14.99304980 32481,6947.179,96.045,571.206,566.883,0.0
